#aV2013 11  5  0  0  0.00000000     288 DD+AD WGS84 FIT  NGA
## 1765 172800.00000000   300.00000000 56601 0.0000000000000
+   31     1  2  3  4  5  6  7  8  9 10 11 12 13 14 15 16 17
+         18 19 20 21 22 23 24 25 26 27 28 29 31 32  0  0  0
+          0  0  0  0  0  0  0  0  0  0  0  0  0  0  0  0  0
+          0  0  0  0  0  0  0  0  0  0  0  0  0  0  0  0  0
+          0  0  0  0  0  0  0  0  0  0  0  0  0  0  0  0  0
++         2  2  2  2  2  2  2  2  2  2  2  2  2  2  2  2  2
++         2  2  2  2  2  2  2  2  2  2  2  2  2  2  2  0  0
++         0  0  0  0  0  0  0  0  0  0  0  0  0  0  0  0  0
++         0  0  0  0  0  0  0  0  0  0  0  0  0  0  0  0  0
++         0  0  0  0  0  0  0  0  0  0  0  0  0  0  0  0  0
%c cc cc ccc ccc cccc cccc cccc cccc ccccc ccccc ccccc ccccc
%c cc cc ccc ccc cccc cccc cccc cccc ccccc ccccc ccccc ccccc
%f  0.0000000  0.000000000  0.00000000000  0.000000000000000
%f  0.0000000  0.000000000  0.00000000000  0.000000000000000
%i    0    0    0    0      0      0      0      0         0
%i    0    0    0    0      0      0      0      0         0
/*      NGA, ST. LOUIS,MO.                                  
/*   EPHEMERIS COMPUTED FROM  1 DAYS OF DATA
/*   EPOCHA SMOOTHER  
/* CCCCCCCCCCCCCCCCCCCCCCCCCCCCCCCCCCCCCCCCCCCCCCCCCCCCCCCCC
*  2013 11  5 14 30  0.00000000                                                 
P  1  15655.555877   -610.039477  21425.521666     91.539741                    
V  1   8484.250680  25924.643655  -5345.080026      0.033904                    
P  2 -14100.665617 -21336.565741  -7839.765641    459.640503                    
V  2   -826.258350 -10541.900853  28790.970862      0.021414                    
P  3  22609.484179   9196.342939 -11223.446744    282.100776                    
V  3 -13547.668285   2252.479175 -26559.459570      0.050866                    
P  4  -5785.920218 -25392.588852   4148.761288      2.828685                    
V  4   5434.889157   4117.681792  30798.966259      0.005055                    
P  5 -11832.154252 -10013.751563 -21603.474089   -398.065493                    
V  5  17876.145839 -20756.677792    -14.472944      0.006071                    
P  6  17438.464089  13267.198784 -15218.657641    135.802169                    
V  6 -19439.708554   -194.099093 -21978.101448      0.175171                    
P  7   8461.594494 -16102.982357 -19169.123516    277.387502                    
V  7   8841.203294  22946.411457 -15633.539887      0.041803                    
P  8   2116.059577 -23635.349354 -11127.332405      9.646059                    
V  8   5006.381153  13752.716850 -28501.469652      0.001887                    
P  9    179.188384 -23865.283124 -12037.043930    280.819498                    
V  9   6400.709198  13098.861745 -27205.584391      0.027700                    
P 10   3934.214450 -21269.320408 -15440.786420   -100.523446                    
V 10  14710.369622 -12701.417662  22114.101238     -0.015174                    
P 11  20318.555838   5898.014602  15713.522599   -435.171652                    
V 11   9988.439219  18739.731499 -19127.294649     -0.034331                    
P 12 -20243.630382   6540.153136  15721.846356    166.292002                    
V 12  12503.038459 -15789.967386  22797.808620      0.022518                    
P 13  18095.873128  -7328.902369 -18203.646114     62.902557                    
V 13  21464.302192   7627.624320  18259.752960     -0.038238                    
P 14    846.007708  15564.539272  21739.381993    211.477422                    
V 14 -26211.270342  -6629.309354   5682.758349     -0.010178                    
P 15 -26487.018650  -3178.185460   1312.963821   -145.587151                    
V 15  -1172.992534  -3485.471951 -31030.516591     -0.019207                    
P 16  10959.675072   9749.700515 -22176.388033   -242.652063                    
V 16 -19484.824318  20114.650695   -460.665724      0.010317                    
P 17   -287.663740 -15520.918207  21804.140351    -37.922971                    
V 17  26444.016420   5914.807571   4371.036524     -0.036511                    
P 18 -16025.118997  20896.114472   1880.128090    283.274409                    
V 18  -4405.284002  -1235.170530 -31083.806091      0.021025                    
P 19  25661.533243   7708.813526   -438.094227   -416.443231                    
V 19  -1043.792961   2155.474281 -31533.542683     -0.026665                    
P 20  20415.737574 -11247.131392  12478.295377    134.626559                    
V 20  -7331.306456  14849.361983  25090.417534      0.028585                    
P 21  -6670.951401  18694.715265 -16815.296343   -327.038074                    
V 21 -10112.918157 -20597.491554 -18748.679269     -0.018203                    
P 22  -7158.931441  22485.904441  12242.538741    193.530485                    
V 22 -12518.712889   9520.651555 -25365.323180      0.019573                    
P 23  25033.690890  -1621.093644  -9223.774316     32.867242                    
V 23  11015.376079   4725.065120  28374.141993     -0.033593                    
P 24 -16640.351114  -4102.939129  20302.072549    -16.825544                    
V 24  -7756.806491 -24608.176053 -11267.922251     -0.007086                    
P 25 -19299.168269  17483.328899   4887.326543    164.029438                    
V 25   2254.149800  -6342.850852  31324.706838      0.033561                    
P 26 -20606.650747 -13608.571687 -10832.866160    257.367790                    
V 26  12616.573217   1991.013892 -27885.731271     -0.102188                    
P 27  19945.333170  12490.863307 -12338.396893    -55.196723                    
V 27 -15801.622117   -614.734241 -26170.571351     -0.037051                    
P 28  11016.316629 -21734.570711  10948.234006    306.353600                    
V 28  10351.882181  -8118.197549 -28232.012215      0.031672                    
P 29 -21070.567269   5602.304780 -15103.478617    484.638783                    
V 29 -18253.550406  -6407.241115  23061.833826      0.030789                    
P 31   6285.967949  25526.529212   2602.588508    329.160770                    
V 31  -3275.837247  -2227.508762  32129.772026      0.006465                    
P 32  18521.888546    854.886620  18905.577300   -532.987583                    
V 32 -15937.363614  18085.365546  15407.058502      0.042850                    
EOF
